NORAD_CAT_ID,OBJECT_NAME,OBJECT_TYPE,EPOCH,MEAN_MOTION,ECCENTRICITY,INCLINATION,RA_OF_ASC_NODE,ARG_OF_PERICENTER,MEAN_ANOMALY,BSTAR,MEAN_MOTION_DOT,MEAN_MOTION_DDOT,TLE_LINE0,TLE_LINE1,TLE_LINE2,SEMIMAJOR_AXIS,PERIOD,APOGEE,PERIGEE,DECAYED
49148.0,STARLINK-3048,PAYLOAD,2023-03-03 11:00:31,14.9833966,0.0003706,70.0021,173.5689,271.9049,88.1685,0.00020574,2.363e-05,0.0,0 STARLINK-3048,1 49148U 21082U   23062.45869874  .00002363  00000-0  20574-3 0  9998,2 49148  70.0021 173.5689 0003706 271.9049  88.1685 14.98339660 81368,6950.163,96.106,574.604,569.452,0.0
49148.0,STARLINK-3048,PAYLOAD,2023-03-04 09:26:24,14.98333733,0.0003414,70.0028,171.2133,268.2758,91.801,0.00012531,1.403e-05,0.0,0 STARLINK-3048,1 49148U 21082U   23063.39333967  .00001403  00000-0  12531-3 0  9999,2 49148  70.0028 171.2133 0003414 268.2758  91.8010 14.98333733 82635,6950.181,96.107,574.419,569.674,0.0
49148.0,STARLINK-3048,PAYLOAD,2023-03-04 11:02:33,14.98316075,0.0003582,70.0025,171.0449,266.3523,93.7226,0.00042389,4.967e-05,0.0,0 STARLINK-3048,1 49148U 21082U   23063.46010494  .00004967  00000-0  42389-3 0  9996,2 49148  70.0025 171.0449 0003582 266.3523  93.7226 14.98316075 81511,6950.236,96.108,574.591,569.611,0.0
49148.0,STARLINK-3048,PAYLOAD,2023-03-04 17:27:04,14.9833724,0.0003434,70.0028,170.372,267.1174,92.9592,-1.78e-05,-3.05e-06,0.0,0 STARLINK-3048,1 49148U 21082U   23063.72713822 -.00000305  00000-0 -17800-4 0  9995,2 49148  70.0028 170.3720 0003434 267.1174  92.9592 14.98337240 81553,6950.171,96.107,574.422,569.649,0.0
49148.0,STARLINK-3048,PAYLOAD,2023-03-04 23:51:37,14.98329279,0.0002851,70.0049,169.6999,260.2536,99.8301,-0.00012367,-1.568e-05,0.0,0 STARLINK-3048,1 49148U 21082U   23063.99418526 -.00001568  00000-0 -12367-3 0  9991,2 49148  70.0049 169.6999 0002851 260.2536  99.8301 14.98329279 82720,6950.195,96.107,574.042,570.079,0.0
49148.0,STARLINK-3048,PAYLOAD,2023-03-05 07:52:17,14.98327723,0.0003038,70.0042,168.8585,259.3991,100.6826,-6.6985e-05,-8.92e-06,0.0,0 STARLINK-3048,1 49148U 21082U   23064.32798486 -.00000892  00000-0 -66985-4 0  9990,2 49148  70.0042 168.8585 0003038 259.3991 100.6826 14.98327723 81642,6950.2,96.107,574.176,569.953,0.0
49148.0,STARLINK-3048,PAYLOAD,2023-03-05 09:28:25,14.98328935,0.0003154,70.003,168.6895,264.9732,95.1067,-7.9928e-05,-1.047e-05,0.0,0 STARLINK-3048,1 49148U 21082U   23064.39474431 -.00001047  00000-0 -79928-4 0  9992,2 49148  70.0030 168.6895 0003154 264.9732  95.1067 14.98328935 81657,6950.196,96.107,574.253,569.869,0.0
49148.0,STARLINK-3048,PAYLOAD,2023-03-05 23:53:38,14.98329342,0.000301,70.0025,167.1743,270.2767,89.8047,9.498e-05,1.04e-05,0.0,0 STARLINK-3048,1 49148U 21082U   23064.99557938  .00001040  00000-0  94980-4 0  9998,2 49148  70.0025 167.1743 0003010 270.2767  89.8047 14.98329342 82872,6950.195,96.107,574.152,569.968,0.0
49148.0,STARLINK-3048,PAYLOAD,2023-03-06 11:06:34,14.98329173,0.000341,70.0015,165.9963,272.143,87.9338,9.03e-05,9.85e-06,0.0,0 STARLINK-3048,1 49148U 21082U   23065.46289974  .00000985  00000-0  90300-4 0  9992,2 49148  70.0015 165.9963 0003410 272.1430  87.9338 14.98329173 81810,6950.195,96.107,574.43,569.69,0.0
49148.0,STARLINK-3048,PAYLOAD,2023-03-06 23:55:39,14.98329128,0.000351,70.0015,164.6504,274.6113,85.4645,-9.3428e-05,-1.208e-05,0.0,0 STARLINK-3048,1 49148U 21082U   23065.99698536 -.00001208  00000-0 -93428-4 0  9993,2 49148  70.0015 164.6504 0003510 274.6113  85.4645 14.98329128 83022,6950.196,96.107,574.5,569.621,0.0
49148.0,STARLINK-3048,PAYLOAD,2023-03-07 15:56:59,14.98336496,0.0003409,70.0015,162.9676,268.9908,91.0861,8.8308e-05,9.61e-06,0.0,0 STARLINK-3048,1 49148U 21082U   23066.66457868  .00000961  00000-0  88308-4 0  9993,2 49148  70.0015 162.9676 0003409 268.9908  91.0861 14.98336496 83128,6950.173,96.107,574.407,569.668,0.0
49148.0,STARLINK-3048,PAYLOAD,2023-03-07 23:57:40,14.98327885,0.0003269,70.0013,162.1252,270.8925,89.1859,6.2904e-05,6.58e-06,0.0,0 STARLINK-3048,1 49148U 21082U   23066.99838463  .00000658  00000-0  62904-4 0  9990,2 49148  70.0013 162.1252 0003269 270.8925  89.1859 14.98327885 83175,6950.199,96.107,574.336,569.792,0.0
49148.0,STARLINK-3048,PAYLOAD,2023-03-08 15:59:00,14.98339821,0.0003441,70.001,160.4408,268.7054,91.3711,8.6487e-05,9.39e-06,0.0,0 STARLINK-3048,1 49148U 21082U   23067.66597556  .00000939  00000-0  86487-4 0  9994,2 49148  70.0010 160.4408 0003441 268.7054  91.3711 14.98339821 83273,6950.163,96.106,574.419,569.636,0.0
49148.0,STARLINK-3048,PAYLOAD,2023-03-09 12:48:44,14.98342344,0.0003252,70.001,158.2532,267.8229,92.2558,0.00018389,2.103e-05,0.0,0 STARLINK-3048,1 49148U 21082U   23068.53385028  .00002103  00000-0  18389-3 0  9990,2 49148  70.0010 158.2532 0003252 267.8229  92.2558 14.98342344 82272,6950.155,96.106,574.28,569.76,0.0
49148.0,STARLINK-3048,PAYLOAD,2023-03-10 11:14:37,14.98348363,0.0003043,70.0008,155.8969,270.0465,90.0345,-1.4464e-05,-2.66e-06,0.0,0 STARLINK-3048,1 49148U 21082U   23069.46848403 -.00000266  00000-0 -14464-4 0  9995,2 49148  70.0008 155.8969 0003043 270.0465  90.0345 14.98348363 83540,6950.136,96.106,574.116,569.886,0.0
49148.0,STARLINK-3048,PAYLOAD,2023-03-10 16:03:01,14.9832346,0.0002712,70.0009,155.3922,263.4665,96.6186,0.00044081,5.17e-05,0.0,0 STARLINK-3048,1 49148U 21082U   23069.66876992  .00005170  00000-0  44081-3 0  9995,2 49148  70.0009 155.3922 0002712 263.4665  96.6186 14.98323460 83574,6950.213,96.107,573.963,570.193,0.0
49148.0,STARLINK-3048,PAYLOAD,2023-03-11 08:04:22,14.98328945,0.0002819,70.0021,153.7107,268.4778,91.6058,-0.00014235,-1.791e-05,0.0,0 STARLINK-3048,1 49148U 21082U   23070.33637663 -.00001791  00000-0 -14235-3 0  9996,2 49148  70.0021 153.7107 0002819 268.4778  91.6058 14.98328945 83670,6950.196,96.107,574.02,570.102,0.0
49148.0,STARLINK-3048,PAYLOAD,2023-03-11 09:40:31,14.98327557,0.0002866,70.0023,153.5426,268.1202,91.9629,-0.000154,-1.93e-05,0.0,0 STARLINK-3048,1 49148U 21082U   23070.40313749 -.00001930  00000-0 -15400-3 0  9990,2 49148  70.0023 153.5426 0002866 268.1202  91.9629 14.98327557 82556,6950.2,96.107,574.057,570.074,0.0
49148.0,STARLINK-3048,PAYLOAD,2023-03-11 14:28:55,14.98327267,0.0002834,70.0023,153.0391,250.33,109.7553,-0.00015239,-1.911e-05,0.0,0 STARLINK-3048,1 49148U 21082U   23070.60341732 -.00001911  00000-0 -15239-3 0  9994,2 49148  70.0023 153.0391 0002834 250.3300 109.7553 14.98327267 82584,6950.201,96.107,574.036,570.097,0.0
49148.0,STARLINK-3048,PAYLOAD,2023-03-12 04:54:08,14.98319468,0.0002789,70.0023,151.5239,256.963,103.1218,-7.4452e-05,-9.81e-06,0.0,0 STARLINK-3048,1 49148U 21082U   23071.20426211 -.00000981  00000-0 -74452-4 0  9996,2 49148  70.0023 151.5239 0002789 256.9630 103.1218 14.98319468 82675,6950.225,96.108,574.029,570.152,0.0
49148.0,STARLINK-3048,PAYLOAD,2023-03-12 12:54:48,14.98318743,0.00028,70.0021,150.6821,258.0869,101.9976,-7.6397e-05,-1.004e-05,0.0,0 STARLINK-3048,1 49148U 21082U   23071.53806512 -.00001004  00000-0 -76397-4 0  9995,2 49148  70.0021 150.6821 0002800 258.0869 101.9976 14.98318743 83854,6950.228,96.108,574.039,570.147,0.0
49148.0,STARLINK-3048,PAYLOAD,2023-03-13 04:56:08,14.9832749,0.0003229,70.0011,148.9973,266.05,94.029,0.00022273,2.565e-05,0.0,0 STARLINK-3048,1 49148U 21082U   23072.20565293  .00002565  00000-0  22273-3 0  9992,2 49148  70.0011 148.9973 0003229 266.0500  94.0290 14.98327490 83959,6950.201,96.107,574.31,569.821,0.0
49148.0,STARLINK-3048,PAYLOAD,2023-03-13 22:33:35,14.98341799,0.0003842,70.0017,147.1454,269.1559,90.916,0.00030833,3.589e-05,0.0,0 STARLINK-3048,1 49148U 21082U   23072.93999867  .00003589  00000-0  30833-3 0  9998,2 49148  70.0017 147.1454 0003842 269.1559  90.9160 14.98341799 84061,6950.156,96.106,574.692,569.351,0.0
49148.0,STARLINK-3048,PAYLOAD,2023-03-14 11:22:42,14.98324579,0.0002958,70.0005,145.7971,265.6121,94.47,9.8857e-05,1.087e-05,0.0,0 STARLINK-3048,1 49148U 21082U   23073.47409797  .00001087  00000-0  98857-4 0  9998,2 49148  70.0005 145.7971 0002958 265.6121  94.4700 14.98324579 84144,6950.21,96.107,574.131,570.019,0.0
49148.0,STARLINK-3048,PAYLOAD,2023-03-14 14:34:58,14.98323652,0.0002974,70.0007,145.4606,265.2507,94.8312,0.00012118,1.353e-05,0.0,0 STARLINK-3048,1 49148U 21082U   23073.60761834  .00001353  00000-0  12118-3 0  9997,2 49148  70.0007 145.4606 0002974 265.2507  94.8312 14.98323652 83031,6950.213,96.107,574.145,570.011,0.0
49148.0,STARLINK-3048,PAYLOAD,2023-03-15 03:24:01,14.98341965,0.0003242,70.0005,144.1145,268.7393,91.3395,-4.4149e-05,-6.2e-06,0.0,0 STARLINK-3048,1 49148U 21082U   23074.14168964 -.00000620  00000-0 -44149-4 0  9990,2 49148  70.0005 144.1145 0003242 268.7393  91.3395 14.98341965 84247,6950.156,96.106,574.274,569.768,0.0
49148.0,STARLINK-3048,PAYLOAD,2023-03-15 11:24:41,14.98349359,0.0003599,70.0,143.273,271.9692,88.1055,4.1747e-06,-4.3e-07,0.0,0 STARLINK-3048,1 49148U 21082U   23074.47548049 -.00000043  00000-0  41747-5 0  9992,2 49148  70.0000 143.2730 0003599 271.9692  88.1055 14.98349359 83167,6950.133,96.106,574.499,569.497,0.0
49148.0,STARLINK-3048,PAYLOAD,2023-03-15 13:00:49,14.98353393,0.0003575,70.0002,143.1047,271.9236,88.1514,4.7525e-05,4.74e-06,0.0,0 STARLINK-3048,1 49148U 21082U   23074.54223577  .00000474  00000-0  47525-4 0  9992,2 49148  70.0002 143.1047 0003575 271.9236  88.1514 14.98353393 84307,6950.121,96.105,574.47,569.501,0.0
49148.0,STARLINK-3048,PAYLOAD,2023-03-15 22:37:37,14.98344562,0.0002542,70.001,142.0968,249.3713,110.7174,2.7068e-05,2.3e-06,0.0,0 STARLINK-3048,1 49148U 21082U   23074.94279845  .00000230  00000-0  27068-4 0  9995,2 49148  70.0010 142.0968 0002542 249.3713 110.7174 14.98344562 84366,6950.148,96.106,573.78,570.246,0.0
49148.0,STARLINK-3048,PAYLOAD,2023-03-16 11:26:44,14.98318192,0.0003005,70.0002,140.7487,256.5411,103.5414,-7.3394e-05,-9.68e-06,0.0,0 STARLINK-3048,1 49148U 21082U   23075.47689953 -.00000968  00000-0 -73394-4 0  9992,2 49148  70.0002 140.7487 0003005 256.5411 103.5414 14.98318192 84444,6950.229,96.108,574.183,570.006,0.0
